[{"OBJECT_NAME":"STARLINK-34230","OBJECT_ID":"2025-111Q","EPOCH":"2026-03-09T22:00:01.999584","MEAN_MOTION":15.46183828,"ECCENTRICITY":0.00135686,"INCLINATION":42.9937,"RA_OF_ASC_NODE":69.6191,"ARG_OF_PERICENTER":116.6313,"MEAN_ANOMALY":52.4338,"EPHEMERIS_TYPE":0,"CLASSIFICATION_TYPE":"U","NORAD_CAT_ID":64137,"ELEMENT_SET_NO":999,"REV_AT_EPOCH":584,"BSTAR":0.0032637377,"MEAN_MOTION_DOT":0.00167921,"MEAN_MOTION_DDOT":0},{"OBJECT_NAME":"STARLINK-36527","OBJECT_ID":"2026-020Q","EPOCH":"2026-03-09T22:00:01.999584","MEAN_MOTION":15.57466901,"ECCENTRICITY":0.00017124,"INCLINATION":42.9994,"RA_OF_ASC_NODE":140.4776,"ARG_OF_PERICENTER":283.3202,"MEAN_ANOMALY":141.7804,"EPHEMERIS_TYPE":0,"CLASSIFICATION_TYPE":"U","NORAD_CAT_ID":67631,"ELEMENT_SET_NO":999,"REV_AT_EPOCH":604,"BSTAR":-0.028699589,"MEAN_MOTION_DOT":-0.01911252,"MEAN_MOTION_DDOT":0}]
